ONEWEB-0283             
1 49001U 21060AL  24326.52424897 -.00000001  00000+0 -36990-4 0  9994
2 49001  87.9081 342.8828 0001888  83.7770 276.3576 13.16597187165580
ONEWEB-0284             
1 49002U 21060AM  24327.04989561  .00000138  00000+0  32656-3 0  9990
2 49002  87.9084 342.7517 0001593  91.6460 268.4853 13.16597978165628
ONEWEB-0285             
1 49075U 21075A   24325.45187689  .00000366  00000+0  98168-3 0  9993
2 49075  87.8859 104.9133 0001500  98.6498 261.4800 13.12441528159954
ONEWEB-0286             
1 49076U 21075B   24326.33817561 -.00000248  00000+0 -72452-3 0  9990
2 49076  87.8857 104.7348 0001583 107.7897 252.3405 13.12439449160406
ONEWEB-0287             
1 49077U 21075C   24326.98761041  .00000181  00000+0  43350-3 0  9992
2 49077  87.9077 119.8509 0001383 103.2296 256.8989 13.17647098159242
ONEWEB-0288             
1 49078U 21075D   24326.32439752  .00000279  00000+0  73902-3 0  9996
2 49078  87.8859 104.7409 0001361 102.2713 257.8568 13.12444859160040
ONEWEB-0289             
1 49079U 21075E   24326.86442835  .00000075  00000+0  16076-3 0  9995
2 49079  87.9077 119.9051 0001553  94.6324 265.4985 13.17651323159801
ONEWEB-0290             
1 49080U 21075F   24326.84755071  .00000025  00000+0  32188-4 0  9992
2 49080  87.9075 119.8670 0001096  71.3363 288.7888 13.17651971159229
